{
  "type": "FeatureCollection",
  "features": [
    {
      "type": "Feature",
      "properties": {
        "norad_id": 38755,
        "name": "SPOT 6",
        "group": "resource",
        "lat": -45.399019871153676,
        "lon": 71.2547260926602,
        "alt_km": 705.1197546156181,
        "timestamp": "2025-12-24T07:45:05.855786+00:00",
        "meta_object_name": "SPOT 6",
        "meta_object_id": "2012-047A",
        "meta_epoch": "2025-12-23T23:43:47.495424",
        "meta_mean_motion": 14.58541297,
        "meta_eccentricity": 0.00012573,
        "meta_inclination": 98.1557,
        "meta_ra_of_asc_node": 62.5652,
        "meta_arg_of_pericenter": 78.9064,
        "meta_mean_anomaly": 281.2277,
        "meta_ephemeris_type": 0,
        "meta_classification_type": "U",
        "meta_norad_cat_id": 38755,
        "meta_element_set_no": 999,
        "meta_rev_at_epoch": 70751,
        "meta_bstar": 7.6566104e-05,
        "meta_mean_motion_dot": 3.11e-06,
        "meta_mean_motion_ddot": 0,
        "tle_line1": "1 38755U 12047A   25357.98874416  .00000311  00000+0  76566-4 0  9999",
        "tle_line2": "2 38755  98.1557  62.5652 0001257  78.9064 281.2277 14.58541297707515"
      },
      "geometry": {
        "type": "Point",
        "coordinates": [
          71.2547260926602,
          -45.399019871153676
        ]
      }
    },
    {
      "type": "Feature",
      "properties": {
        "norad_id": 39019,
        "name": "PLEIADES 1B",
        "group": "resource",
        "lat": -32.20613346109886,
        "lon": -114.40576548126039,
        "alt_km": 704.3964986432984,
        "timestamp": "2025-12-24T07:45:05.855796+00:00",
        "meta_object_name": "PLEIADES 1B",
        "meta_object_id": "2012-068A",
        "meta_epoch": "2025-12-23T22:32:54.249792",
        "meta_mean_motion": 14.58562392,
        "meta_eccentricity": 0.00011433,
        "meta_inclination": 98.1783,
        "meta_ra_of_asc_node": 70.4141,
        "meta_arg_of_pericenter": 86.5405,
        "meta_mean_anomaly": 273.5925,
        "meta_ephemeris_type": 0,
        "meta_classification_type": "U",
        "meta_norad_cat_id": 39019,
        "meta_element_set_no": 999,
        "meta_rev_at_epoch": 69530,
        "meta_bstar": 9.4838995e-05,
        "meta_mean_motion_dot": 3.95e-06,
        "meta_mean_motion_ddot": 0,
        "tle_line1": "1 39019U 12068A   25357.93951678  .00000395  00000+0  94839-4 0  9992",
        "tle_line2": "2 39019  98.1783  70.4141 0001143  86.5405 273.5925 14.58562392695305"
      },
      "geometry": {
        "type": "Point",
        "coordinates": [
          -114.40576548126039,
          -32.20613346109886
        ]
      }
    },
    {
      "type": "Feature",
      "properties": {
        "norad_id": 39030,
        "name": "GOKTURK 2",
        "group": "resource",
        "lat": 43.851375671689446,
        "lon": -168.05011166436148,
        "alt_km": 640.0466955081065,
        "timestamp": "2025-12-24T07:45:05.855806+00:00",
        "meta_object_name": "GOKTURK 2",
        "meta_object_id": "2012-073A",
        "meta_epoch": "2025-12-23T23:24:44.636832",
        "meta_mean_motion": 14.75305568,
        "meta_eccentricity": 0.00013899,
        "meta_inclination": 97.6883,
        "meta_ra_of_asc_node": 199.0764,
        "meta_arg_of_pericenter": 106.8113,
        "meta_mean_anomaly": 253.3249,
        "meta_ephemeris_type": 0,
        "meta_classification_type": "U",
        "meta_norad_cat_id": 39030,
        "meta_element_set_no": 999,
        "meta_rev_at_epoch": 69867,
        "meta_bstar": 9.1312733e-05,
        "meta_mean_motion_dot": 5.71e-06,
        "meta_mean_motion_ddot": 0,
        "tle_line1": "1 39030U 12073A   25357.97551663  .00000571  00000+0  91313-4 0  9995",
        "tle_line2": "2 39030  97.6883 199.0764 0001389 106.8113 253.3249 14.75305568698673"
      },
      "geometry": {
        "type": "Point",
        "coordinates": [
          -168.05011166436148,
          43.851375671689446
        ]
      }
    },
    {
      "type": "Feature",
      "properties": {
        "norad_id": 39084,
        "name": "LANDSAT 8",
        "group": "resource",
        "lat": -37.302993380436774,
        "lon": 72.53638018037474,
        "alt_km": 709.3524452170168,
        "timestamp": "2025-12-24T07:45:05.855816+00:00",
        "meta_object_name": "LANDSAT 8",
        "meta_object_id": "2013-008A",
        "meta_epoch": "2025-12-23T22:02:10.222368",
        "meta_mean_motion": 14.57113456,
        "meta_eccentricity": 0.00010558,
        "meta_inclination": 98.2057,
        "meta_ra_of_asc_node": 65.8259,
        "meta_arg_of_pericenter": 92.3761,
        "meta_mean_anomaly": 267.7558,
        "meta_ephemeris_type": 0,
        "meta_classification_type": "U",
        "meta_norad_cat_id": 39084,
        "meta_element_set_no": 999,
        "meta_rev_at_epoch": 67237,
        "meta_bstar": 0.00010184025,
        "meta_mean_motion_dot": 4.14e-06,
        "meta_mean_motion_ddot": 0,
        "tle_line1": "1 39084U 13008A   25357.91817387  .00000414  00000+0  10184-3 0  9997",
        "tle_line2": "2 39084  98.2057  65.8259 0001055  92.3761 267.7558 14.57113456672373"
      },
      "geometry": {
        "type": "Point",
        "coordinates": [
          72.53638018037474,
          -37.302993380436774
        ]
      }
    },
    {
      "type": "Feature",
      "properties": {
        "norad_id": 39086,
        "name": "SARAL",
        "group": "resource",
        "lat": 13.887324922090281,
        "lon": 179.9702792757334,
        "alt_km": 782.8396686550814,
        "timestamp": "2025-12-24T07:45:05.855826+00:00",
        "meta_object_name": "SARAL",
        "meta_object_id": "2013-009A",
        "meta_epoch": "2025-12-23T23:18:21.698208",
        "meta_mean_motion": 14.32760771,
        "meta_eccentricity": 0.00029633,
        "meta_inclination": 98.5503,
        "meta_ra_of_asc_node": 181.7548,
        "meta_arg_of_pericenter": 87.6039,
        "meta_mean_anomaly": 272.5485,
        "meta_ephemeris_type": 0,
        "meta_classification_type": "U",
        "meta_norad_cat_id": 39086,
        "meta_element_set_no": 999,
        "meta_rev_at_epoch": 67051,
        "meta_bstar": 5.8810116e-05,
        "meta_mean_motion_dot": 1.17e-06,
        "meta_mean_motion_ddot": 0,
        "tle_line1": "1 39086U 13009A   25357.97108447  .00000117  00000+0  58810-4 0  9995",
        "tle_line2": "2 39086  98.5503 181.7548 0002963  87.6039 272.5485 14.32760771670515"
      },
      "geometry": {
        "type": "Point",
        "coordinates": [
          179.9702792757334,
          13.887324922090281
        ]
      }
    },
    {
      "type": "Feature",
      "properties": {
        "norad_id": 39150,
        "name": "GAOFEN-1",
        "group": "resource",
        "lat": 6.127471201606325,
        "lon": -110.365761944214,
        "alt_km": 637.2430835450095,
        "timestamp": "2025-12-24T07:45:05.855837+00:00",
        "meta_object_name": "GAOFEN-1",
        "meta_object_id": "2013-018A",
        "meta_epoch": "2025-12-23T22:50:12.985152",
        "meta_mean_motion": 14.76497297,
        "meta_eccentricity": 0.00184999,
        "meta_inclination": 97.9314,
        "meta_ra_of_asc_node": 68.4119,
        "meta_arg_of_pericenter": 109.0711,
        "meta_mean_anomaly": 251.2504,
        "meta_ephemeris_type": 0,
        "meta_classification_type": "U",
        "meta_norad_cat_id": 39150,
        "meta_element_set_no": 999,
        "meta_rev_at_epoch": 68238,
        "meta_bstar": 9.0530126e-05,
        "meta_mean_motion_dot": 5.81e-06,
        "meta_mean_motion_ddot": 0,
        "tle_line1": "1 39150U 13018A   25357.95153918  .00000581  00000+0  90530-4 0  9998",
        "tle_line2": "2 39150  97.9314  68.4119 0018499 109.0711 251.2504 14.76497297682384"
      },
      "geometry": {
        "type": "Point",
        "coordinates": [
          -110.365761944214,
          6.127471201606325
        ]
      }
    },
    {
      "type": "Feature",
      "properties": {
        "norad_id": 39160,
        "name": "VNREDSAT 1",
        "group": "resource",
        "lat": 65.2276742227189,
        "lon": -109.21528221405984,
        "alt_km": 670.2125223136372,
        "timestamp": "2025-12-24T07:45:05.855847+00:00",
        "meta_object_name": "VNREDSAT 1",
        "meta_object_id": "2013-021B",
        "meta_epoch": "2025-12-23T23:02:20.619168",
        "meta_mean_motion": 14.64938367,
        "meta_eccentricity": 0.00011759,
        "meta_inclination": 97.9356,
        "meta_ra_of_asc_node": 52.841,
        "meta_arg_of_pericenter": 81.8483,
        "meta_mean_anomaly": 278.2854,
        "meta_ephemeris_type": 0,
        "meta_classification_type": "U",
        "meta_norad_cat_id": 39160,
        "meta_element_set_no": 999,
        "meta_rev_at_epoch": 67463,
        "meta_bstar": 0.00012317537,
        "meta_mean_motion_dot": 6.13e-06,
        "meta_mean_motion_ddot": 0,
        "tle_line1": "1 39160U 13021B   25357.95996087  .00000613  00000+0  12318-3 0  9998",
        "tle_line2": "2 39160  97.9356  52.8410 0001175  81.8483 278.2854 14.64938367674639"
      },
      "geometry": {
        "type": "Point",
        "coordinates": [
          -109.21528221405984,
          65.2276742227189
        ]
      }
    }
  ]
}